<?xml version="1.0" encoding="UTF-8"?>
<kml xmlns="http://www.opengis.net/kml/2.2" xmlns:gx="http://www.google.com/kml/ext/2.2" xmlns:kml="http://www.opengis.net/kml/2.2" xmlns:atom="http://www.w3.org/2005/Atom">
<Document>
	<name>Geocerca Generica.kml</name>
	<StyleMap id="m_ylw-pushpin">
		<Pair>
			<key>normal</key>
			<styleUrl>#s_ylw-pushpin</styleUrl>
		</Pair>
		<Pair>
			<key>highlight</key>
			<styleUrl>#s_ylw-pushpin_hl</styleUrl>
		</Pair>
	</StyleMap>
	<Style id="s_ylw-pushpin">
		<IconStyle>
			<scale>1.1</scale>
			<Icon>
				<href>http://maps.google.com/mapfiles/kml/pushpin/ylw-pushpin.png</href>
			</Icon>
			<hotSpot x="20" y="2" xunits="pixels" yunits="pixels"/>
		</IconStyle>
		<PolyStyle>
			<color>80ffffff</color>
		</PolyStyle>
	</Style>
	<Style id="s_ylw-pushpin_hl">
		<IconStyle>
			<scale>1.3</scale>
			<Icon>
				<href>http://maps.google.com/mapfiles/kml/pushpin/ylw-pushpin.png</href>
			</Icon>
			<hotSpot x="20" y="2" xunits="pixels" yunits="pixels"/>
		</IconStyle>
		<PolyStyle>
			<color>80ffffff</color>
		</PolyStyle>
	</Style>
	<Placemark>
		<name>Geocerca Generica</name>
		<styleUrl>#m_ylw-pushpin</styleUrl>
		<Polygon>
			<tessellate>1</tessellate>
			<outerBoundaryIs>
				<LinearRing>
					<coordinates>
						-68.19825358941091,-38.91789754446113,0 -68.2651464182497,-38.92565203002494,0 -68.29949907489723,-38.92843418904393,0 -68.34165905799016,-38.9422980171281,0 -68.3295267468518,-38.96584356276134,0 -68.32042208595023,-38.96099181632981,0 -68.29063849686548,-38.95410934326519,0 -68.2520367718077,-38.95470048787411,0 -68.25202320877828,-38.95609715925379,0 -68.28746202448541,-38.95618780550318,0 -68.31625933378268,-38.96286468634245,0 -68.32713020822318,-38.9685375059523,0 -68.32808448825777,-38.97904742303495,0 -68.31260779806721,-38.99512422824981,0 -68.26137478771597,-38.98615769921921,0 -68.14576442584551,-39.00368465945609,0 -68.04424367231438,-38.99710808980153,0 -67.960414473124,-38.96925147199764,0 -68.00974347070756,-38.94408572391943,0 -68.00871472453932,-38.94320613987902,0 -67.91869832056793,-38.98672331096042,0 -67.89393361051545,-38.95517639778128,0 -67.93588975444197,-38.9065589669529,0 -68.05975026285293,-38.786814908582,0 -68.08245819963814,-38.78856837260594,0 -68.07681451182975,-38.80749387755009,0 -68.07967929437373,-38.81404779791786,0 -68.07520746904279,-38.82588505434492,0 -68.06810874735105,-38.84162240698729,0 -68.06150496859847,-38.85404484794352,0 -68.06013724059761,-38.86046592006132,0 -68.0236268400354,-38.90179047603611,0 -68.01694280927863,-38.91502199149584,0 -68.0198163841382,-38.91508087721533,0 -68.02677894854887,-38.90233646084992,0 -68.06224688204291,-38.86182565412391,0 -68.06431627611144,-38.85370399543707,0 -68.07417991805634,-38.83338323818321,0 -68.08240188813065,-38.81394939400125,0 -68.07899029702001,-38.80787052276094,0 -68.08289101702452,-38.7938999094128,0 -68.14081680866238,-38.79936969038731,0 -68.13302326385882,-38.81981986794604,0 -68.12803883395351,-38.83157692708969,0 -68.1219959688289,-38.84203081987261,0 -68.11760038961086,-38.85014059446316,0 -68.1114918927769,-38.8577215462384,0 -68.10663080997571,-38.86959689452767,0 -68.10038782164807,-38.87643343418319,0 -68.09742471632315,-38.88264544241229,0 -68.09161649283128,-38.89077134319804,0 -68.09420507859318,-38.89138705681395,0 -68.09979992751741,-38.88386308963585,0 -68.10209542619289,-38.87779293582778,0 -68.10890891326423,-38.87129940973566,0 -68.11424107981215,-38.85851709284095,0 -68.12212202551164,-38.84733116814644,0 -68.13264445670121,-38.82856041982143,0 -68.14325411095365,-38.80296106117177,0 -68.15051458316898,-38.78488739235213,0 -68.18706188910934,-38.81289907861463,0 -68.17969069929103,-38.88176614811897,0 -68.16399460909611,-38.89789006658946,0 -68.16256920962192,-38.91051622213124,0 -68.16388514709263,-38.91681167464056,0 -68.19825358941091,-38.91789754446113,0 
					</coordinates>
				</LinearRing>
			</outerBoundaryIs>
		</Polygon>
		<atom:link rel="app" href="https://www.google.com/earth/about/versions/#earth-pro" title="Google Earth Pro 7.3.6.10201"></atom:link>
	</Placemark>
</Document>
</kml>
